OBJECT_NAME,OBJECT_ID,EPOCH,MEAN_MOTION,ECCENTRICITY,INCLINATION,RA_OF_ASC_NODE,ARG_OF_PERICENTER,MEAN_ANOMALY,EPHEMERIS_TYPE,CLASSIFICATION_TYPE,NORAD_CAT_ID,ELEMENT_SET_NO,REV_AT_EPOCH,BSTAR,MEAN_MOTION_DOT,MEAN_MOTION_DDOT
STARLINK-37953,2026-145T,2026-07-15T00:42:32.535072,15.75183065,.000166,97.2836,42.9063,100.6155,259.5297,0,U,69694,999,315,.89476E-3,.135427E-2,0
STARLINK-37926,2026-145U,2026-07-15T04:00:03.000096,15.75290176,.0001756,97.2833,43.0526,82.9976,338.3787,0,U,69695,999,442,-.15578E-2,-.227418E-2,0
STARLINK-37959,2026-145V,2026-07-15T02:11:29.203008,15.75179108,.0002238,97.2829,42.9733,67.0785,293.0716,0,U,69696,999,316,.87633E-3,.132573E-2,0
STARLINK-37976,2026-145W,2026-07-15T02:07:25.105728,15.75175438,.0001707,97.2835,42.9777,79.3934,280.7523,0,U,69697,999,316,.89893E-3,.136023E-2,0
STARLINK-37912,2026-145X,2026-07-15T02:05:53.671200,15.75175592,.0002019,97.2830,42.9810,78.9012,281.2480,0,U,69698,999,316,.10965E-2,.166546E-2,0
STARLINK-37974,2026-145Y,2026-07-15T02:04:52.110336,15.75188834,.0000962,97.2834,42.9812,142.3096,217.8237,0,U,69699,999,316,.11682E-2,.177786E-2,0
STARLINK-37955,2026-145Z,2026-07-15T03:32:47.943168,15.75211485,.0001501,97.2832,43.0511,96.9262,263.2173,0,U,69700,999,317,.96129E-3,.145863E-2,0
STARLINK-38055,2026-147A,2026-07-15T02:32:32.068608,15.80841921,.0000492,97.2829,232.4864,98.8724,261.2600,0,U,69704,999,384,.804E-3,.156847E-2,0
STARLINK-37898,2026-147B,2026-07-15T01:00:11.668608,15.80922505,.0001322,97.2835,232.4215,83.6910,276.4509,0,U,69705,999,383,.14305E-2,.284363E-2,0
STARLINK-37970,2026-147C,2026-07-15T00:59:06.741600,15.80913938,.0001124,97.2829,232.4225,112.0066,248.1322,0,U,69706,999,383,.13162E-2,.260828E-2,0
STARLINK-37975,2026-147D,2026-07-15T02:29:10.971744,15.80836044,.0000743,97.2828,232.4904,114.2748,245.8598,0,U,69707,999,384,.72943E-3,.142002E-2,0
STARLINK-37972,2026-147E,2026-07-15T02:28:05.975616,15.80837116,.0000725,97.2831,232.4913,112.6643,247.4702,0,U,69708,999,384,.70898E-3,.137961E-2,0
STARLINK-37963,2026-147F,2026-07-15T02:27:01.033056,15.80840988,.0000951,97.2827,232.4920,94.3369,265.8008,0,U,69709,999,384,.65645E-3,.127597E-2,0
STARLINK-37969,2026-147G,2026-07-15T02:25:56.070624,15.80834375,.0000782,97.2832,232.4938,109.4956,250.6396,0,U,69710,999,384,.67475E-3,.131173E-2,0
STARLINK-37956,2026-147H,2026-07-15T02:24:51.367392,15.80851912,.0002095,97.2831,232.4955,126.3866,233.7595,0,U,69711,999,384,.49712E-3,.96302E-3,0
STARLINK-38043,2026-147J,2026-07-15T02:23:44.943936,15.80904532,.0001489,97.2832,232.4954,127.9362,232.2041,0,U,69712,999,384,.6378E-3,.124284E-2,0
STARLINK-38020,2026-147K,2026-07-15T02:22:41.638656,15.80842139,.0001862,97.2827,232.4978,16.3957,343.7371,0,U,69713,999,384,.73076E-3,.142312E-2,0
STARLINK-38059,2026-147L,2026-07-15T02:21:36.654624,15.80839582,.0001164,97.2828,232.4985,359.4748,0.6519,0,U,69714,999,384,.76469E-3,.14902E-2,0
STARLINK-38061,2026-147M,2026-07-15T02:20:31.704288,15.80832480,.0001896,97.2839,232.5001,349.2303,10.8924,0,U,69715,999,384,.63848E-3,.124008E-2,0
STARLINK-38060,2026-147N,2026-07-15T02:19:26.645088,15.80827239,.0001039,97.2834,232.4983,54.3527,305.7838,0,U,69716,999,384,.45075E-3,.87107E-3,0
STARLINK-38040,2026-147P,2026-07-15T02:18:21.864096,15.80842194,.0001331,97.2819,232.5013,29.1016,331.0326,0,U,69717,999,384,.68266E-3,.132787E-2,0
STARLINK-37989,2026-147Q,2026-07-15T04:00:03.000096,15.80840874,.0001086,97.2831,232.5790,90.8466,315.1533,0,U,69718,999,382,-.24109E-3,-.46129E-3,0
STARLINK-38039,2026-147R,2026-07-14T23:13:53.446944,15.80887029,.0001338,97.2820,232.3677,107.8460,252.2954,0,U,69719,999,382,.1074E-2,.211332E-2,0
STARLINK-38003,2026-147S,2026-07-15T02:15:06.987168,15.80850979,.0001073,97.2825,232.5036,32.1433,327.9900,0,U,69720,999,384,.79776E-3,.15567E-2,0
STARLINK-38014,2026-147T,2026-07-15T02:14:02.092128,15.80846328,.0001651,97.2826,232.5044,2.8748,357.2529,0,U,69721,999,384,.79407E-3,.154906E-2,0
STARLINK-37915,2026-147U,2026-07-15T02:12:57.344832,15.80837015,.0002144,97.2827,232.5049,24.3571,335.7799,0,U,69722,999,384,.58086E-3,.112684E-2,0
STARLINK-38007,2026-147V,2026-07-15T04:00:03.000096,15.80844958,.000133,97.2850,232.5781,111.3215,298.1695,0,U,69723,999,382,-.25627E-3,-.49019E-3,0
STARLINK-38008,2026-147W,2026-07-15T02:10:47.298144,15.80862295,.0000974,97.2834,232.5080,56.3109,303.8252,0,U,69724,999,384,.95518E-3,.187193E-2,0
STARLINK-38021,2026-147X,2026-07-15T02:09:42.723648,15.80841708,.0003573,97.2820,232.5094,8.1427,351.9899,0,U,69725,999,384,.67756E-3,.131813E-2,0
STARLINK-38015,2026-147Y,2026-07-15T02:08:37.875264,15.80840269,.0003138,97.2832,232.5109,6.2476,353.8831,0,U,69726,999,384,.67271E-3,.130833E-2,0
