STARLINK-37953          
1 69694U 26145T   26196.02954323  .00135427  00000+0  89476-3 0  9992
2 69694  97.2836  42.9063 0001660 100.6155 259.5297 15.75183065  3155
STARLINK-37926          
1 69695U 26145U   26196.16670139 -.00227418  00000+0 -15578-2 0  9993
2 69695  97.2833  43.0526 0001756  82.9976 338.3787 15.75290176  4421
STARLINK-37959          
1 69696U 26145V   26196.09131022  .00132573  00000+0  87633-3 0  9996
2 69696  97.2829  42.9733 0002238  67.0785 293.0716 15.75179108  3163
STARLINK-37976          
1 69697U 26145W   26196.08848502  .00136023  00000+0  89893-3 0  9998
2 69697  97.2835  42.9777 0001707  79.3934 280.7523 15.75175438  3162
STARLINK-37912          
1 69698U 26145X   26196.08742675  .00166546  00000+0  10965-2 0  9999
2 69698  97.2830  42.9810 0002019  78.9012 281.2480 15.75175592  3164
STARLINK-37974          
1 69699U 26145Y   26196.08671424  .00177786  00000+0  11682-2 0  9998
2 69699  97.2834  42.9812 0000962 142.3096 217.8237 15.75188834  3162
STARLINK-37955          
1 69700U 26145Z   26196.14777712  .00145863  00000+0  96129-3 0  9996
2 69700  97.2832  43.0511 0001501  96.9262 263.2173 15.75211485  3174
STARLINK-38055          
1 69704U 26147A   26196.10592672  .00156847  00000+0  80400-3 0  9997
2 69704  97.2829 232.4864 0000492  98.8724 261.2600 15.80841921  3848
STARLINK-37898          
1 69705U 26147B   26196.04180172  .00284363  00000+0  14305-2 0  9994
2 69705  97.2835 232.4215 0001322  83.6910 276.4509 15.80922505  3831
STARLINK-37970          
1 69706U 26147C   26196.04105025  .00260828  00000+0  13162-2 0  9999
2 69706  97.2829 232.4225 0001124 112.0066 248.1322 15.80913938  3834
STARLINK-37975          
1 69707U 26147D   26196.10359921  .00142002  00000+0  72943-3 0  9999
2 69707  97.2828 232.4904 0000743 114.2748 245.8598 15.80836044  3847
STARLINK-37972          
1 69708U 26147E   26196.10284694  .00137961  00000+0  70898-3 0  9999
2 69708  97.2831 232.4913 0000725 112.6643 247.4702 15.80837116  3844
STARLINK-37963          
1 69709U 26147F   26196.10209529  .00127597  00000+0  65645-3 0  9992
2 69709  97.2827 232.4920 0000951  94.3369 265.8008 15.80840988  3844
STARLINK-37969          
1 69710U 26147G   26196.10134341  .00131173  00000+0  67475-3 0  9991
2 69710  97.2832 232.4938 0000782 109.4956 250.6396 15.80834375  3848
STARLINK-37956          
1 69711U 26147H   26196.10059453  .00096302  00000+0  49712-3 0  9990
2 69711  97.2831 232.4955 0002095 126.3866 233.7595 15.80851912  3843
STARLINK-38043          
1 69712U 26147J   26196.09982574  .00124284  00000+0  63780-3 0  9990
2 69712  97.2832 232.4954 0001489 127.9362 232.2041 15.80904532  3845
STARLINK-38020          
1 69713U 26147K   26196.09909304  .00142312  00000+0  73076-3 0  9992
2 69713  97.2827 232.4978 0001862  16.3957 343.7371 15.80842139  3840
STARLINK-38059          
1 69714U 26147L   26196.09834091  .00149020  00000+0  76469-3 0  9995
2 69714  97.2828 232.4985 0001164 359.4748   0.6519 15.80839582  3845
STARLINK-38061          
1 69715U 26147M   26196.09758917  .00124008  00000+0  63848-3 0  9994
2 69715  97.2839 232.5001 0001896 349.2303  10.8924 15.80832480  3847
STARLINK-38060          
1 69716U 26147N   26196.09683617  .00087107  00000+0  45075-3 0  9999
2 69716  97.2834 232.4983 0001039  54.3527 305.7838 15.80827239  3848
STARLINK-38040          
1 69717U 26147P   26196.09608639  .00132787  00000+0  68266-3 0  9993
2 69717  97.2819 232.5013 0001331  29.1016 331.0326 15.80842194  3846
STARLINK-37989          
1 69718U 26147Q   26196.16670139 -.00046129  00000+0 -24109-3 0  9990
2 69718  97.2831 232.5790 0001086  90.8466 315.1533 15.80840874  3828
STARLINK-38039          
1 69719U 26147R   26195.96797971  .00211332  00000+0  10740-2 0  9995
2 69719  97.2820 232.3677 0001338 107.8460 252.2954 15.80887029  3823
STARLINK-38003          
1 69720U 26147S   26196.09383087  .00155670  00000+0  79776-3 0  9998
2 69720  97.2825 232.5036 0001073  32.1433 327.9900 15.80850979  3844
STARLINK-38014          
1 69721U 26147T   26196.09307977  .00154906  00000+0  79407-3 0  9995
2 69721  97.2826 232.5044 0001651   2.8748 357.2529 15.80846328  3846
STARLINK-37915          
1 69722U 26147U   26196.09233038  .00112684  00000+0  58086-3 0  9999
2 69722  97.2827 232.5049 0002144  24.3571 335.7799 15.80837015  3847
STARLINK-38007          
1 69723U 26147V   26196.16670139 -.00049019  00000+0 -25627-3 0  9993
2 69723  97.2850 232.5781 0001330 111.3215 298.1695 15.80844958  3824
STARLINK-38008          
1 69724U 26147W   26196.09082521  .00187193  00000+0  95518-3 0  9998
2 69724  97.2834 232.5080 0000974  56.3109 303.8252 15.80862295  3841
STARLINK-38021          
1 69725U 26147X   26196.09007782  .00131813  00000+0  67756-3 0  9996
2 69725  97.2820 232.5094 0003573   8.1427 351.9899 15.80841708  3845
STARLINK-38015          
1 69726U 26147Y   26196.08932726  .00130833  00000+0  67271-3 0  9994
2 69726  97.2832 232.5109 0003138   6.2476 353.8831 15.80840269  3844
